{
  "type": "FeatureCollection",
  "features": [
    {
      "type": "Feature",
      "properties": {
        "norad_id": 47053,
        "name": "COSMOS 2251 DEB",
        "group": "cosmos-2251-debris",
        "lat": 40.99714825556601,
        "lon": -115.67621048873414,
        "alt_km": 753.4281907813838,
        "timestamp": "2025-12-27T15:27:11.593043+00:00",
        "meta_object_name": "COSMOS 2251 DEB",
        "meta_object_id": "1993-036BXH",
        "meta_epoch": "2025-12-21T23:22:14.227392",
        "meta_mean_motion": 13.59701409,
        "meta_eccentricity": 0.03775476,
        "meta_inclination": 74.0593,
        "meta_ra_of_asc_node": 239.1144,
        "meta_arg_of_pericenter": 50.5889,
        "meta_mean_anomaly": 327.7768,
        "meta_ephemeris_type": 0,
        "meta_classification_type": "U",
        "meta_norad_cat_id": 47053,
        "meta_element_set_no": 999,
        "meta_rev_at_epoch": 29014,
        "meta_bstar": 0.0013674764,
        "meta_mean_motion_dot": 1.606e-05,
        "meta_mean_motion_ddot": 0,
        "tle_line1": "1 47053U 93036BXH 25355.97377578  .00001606  00000+0  13675-2 0  9999",
        "tle_line2": "2 47053  74.0593 239.1144 0377547  50.5889 327.7768 13.59701409290146"
      },
      "geometry": {
        "type": "Point",
        "coordinates": [
          -115.67621048873414,
          40.99714825556601
        ]
      }
    },
    {
      "type": "Feature",
      "properties": {
        "norad_id": 47059,
        "name": "COSMOS 2251 DEB",
        "group": "cosmos-2251-debris",
        "lat": -36.40263562190207,
        "lon": 36.630519865846026,
        "alt_km": 538.3990548927495,
        "timestamp": "2025-12-27T15:27:11.593053+00:00",
        "meta_object_name": "COSMOS 2251 DEB",
        "meta_object_id": "1993-036BXP",
        "meta_epoch": "2025-12-16T01:10:48.054720",
        "meta_mean_motion": 15.13144812,
        "meta_eccentricity": 0.00128667,
        "meta_inclination": 73.98,
        "meta_ra_of_asc_node": 228.534,
        "meta_arg_of_pericenter": 42.2566,
        "meta_mean_anomaly": 26.5019,
        "meta_ephemeris_type": 0,
        "meta_classification_type": "U",
        "meta_norad_cat_id": 47059,
        "meta_element_set_no": 999,
        "meta_rev_at_epoch": 8355,
        "meta_bstar": 0.0018804977,
        "meta_mean_motion_dot": 0.00033522,
        "meta_mean_motion_ddot": 0,
        "tle_line1": "1 47059U 93036BXP 25350.04916730  .00033522  00000+0  18805-2 0  9999",
        "tle_line2": "2 47059  73.9800 228.5340 0012866  42.2566  26.5019 15.13144812 83550"
      },
      "geometry": {
        "type": "Point",
        "coordinates": [
          36.630519865846026,
          -36.40263562190207
        ]
      }
    },
    {
      "type": "Feature",
      "properties": {
        "norad_id": 47062,
        "name": "COSMOS 2251 DEB",
        "group": "cosmos-2251-debris",
        "lat": -53.4260500917096,
        "lon": -103.7866675699717,
        "alt_km": 875.4793771003206,
        "timestamp": "2025-12-27T15:27:11.593063+00:00",
        "meta_object_name": "COSMOS 2251 DEB",
        "meta_object_id": "1993-036BXS",
        "meta_epoch": "2025-12-26T21:40:26.334912",
        "meta_mean_motion": 13.7198095,
        "meta_eccentricity": 0.0322168,
        "meta_inclination": 74.0838,
        "meta_ra_of_asc_node": 54.8174,
        "meta_arg_of_pericenter": 177.7284,
        "meta_mean_anomaly": 358.1431,
        "meta_ephemeris_type": 0,
        "meta_classification_type": "U",
        "meta_norad_cat_id": 47062,
        "meta_element_set_no": 999,
        "meta_rev_at_epoch": 55796,
        "meta_bstar": 0.00088776,
        "meta_mean_motion_dot": 1.146e-05,
        "meta_mean_motion_ddot": 0,
        "tle_line1": "1 47062U 93036BXS 25360.90308258  .00001146  00000+0  88776-3 0  9991",
        "tle_line2": "2 47062  74.0838  54.8174 0322168 177.7284 358.1431 13.71980950557968"
      },
      "geometry": {
        "type": "Point",
        "coordinates": [
          -103.7866675699717,
          -53.4260500917096
        ]
      }
    },
    {
      "type": "Feature",
      "properties": {
        "norad_id": 47068,
        "name": "COSMOS 2251 DEB",
        "group": "cosmos-2251-debris",
        "lat": 25.98630590241558,
        "lon": -176.65230314210277,
        "alt_km": 721.510590982165,
        "timestamp": "2025-12-27T15:27:11.593073+00:00",
        "meta_object_name": "COSMOS 2251 DEB",
        "meta_object_id": "1993-036BXY",
        "meta_epoch": "2025-12-23T18:48:26.675712",
        "meta_mean_motion": 14.5321924,
        "meta_eccentricity": 0.00182523,
        "meta_inclination": 74.0229,
        "meta_ra_of_asc_node": 182.6094,
        "meta_arg_of_pericenter": 268.9678,
        "meta_mean_anomaly": 90.9393,
        "meta_ephemeris_type": 0,
        "meta_classification_type": "U",
        "meta_norad_cat_id": 47068,
        "meta_element_set_no": 999,
        "meta_rev_at_epoch": 61917,
        "meta_bstar": 0.00081306022,
        "meta_mean_motion_dot": 3.351e-05,
        "meta_mean_motion_ddot": 0,
        "tle_line1": "1 47068U 93036BXY 25357.78364208  .00003351  00000+0  81306-3 0  9998",
        "tle_line2": "2 47068  74.0229 182.6094 0018252 268.9678  90.9393 14.53219240619173"
      },
      "geometry": {
        "type": "Point",
        "coordinates": [
          -176.65230314210277,
          25.98630590241558
        ]
      }
    },
    {
      "type": "Feature",
      "properties": {
        "norad_id": 47073,
        "name": "COSMOS 2251 DEB",
        "group": "cosmos-2251-debris",
        "lat": 63.4964699294446,
        "lon": -38.99836628223788,
        "alt_km": 887.7179652652267,
        "timestamp": "2025-12-27T15:27:11.593084+00:00",
        "meta_object_name": "COSMOS 2251 DEB",
        "meta_object_id": "1993-036BYD",
        "meta_epoch": "2025-12-20T05:09:22.277088",
        "meta_mean_motion": 14.04735867,
        "meta_eccentricity": 0.0161533,
        "meta_inclination": 74.0811,
        "meta_ra_of_asc_node": 188.8357,
        "meta_arg_of_pericenter": 225.3344,
        "meta_mean_anomaly": 133.4535,
        "meta_ephemeris_type": 0,
        "meta_classification_type": "U",
        "meta_norad_cat_id": 47073,
        "meta_element_set_no": 999,
        "meta_rev_at_epoch": 60466,
        "meta_bstar": 0.00045488,
        "meta_mean_motion_dot": 7.94e-06,
        "meta_mean_motion_ddot": 0,
        "tle_line1": "1 47073U 93036BYD 25354.21484117  .00000794  00000+0  45488-3 0  9990",
        "tle_line2": "2 47073  74.0811 188.8357 0161533 225.3344 133.4535 14.04735867604667"
      },
      "geometry": {
        "type": "Point",
        "coordinates": [
          -38.99836628223788,
          63.4964699294446
        ]
      }
    },
    {
      "type": "Feature",
      "properties": {
        "norad_id": 47074,
        "name": "COSMOS 2251 DEB",
        "group": "cosmos-2251-debris",
        "lat": 52.79743714703839,
        "lon": 79.386266321833,
        "alt_km": 870.8577970376946,
        "timestamp": "2025-12-27T15:27:11.593115+00:00",
        "meta_object_name": "COSMOS 2251 DEB",
        "meta_object_id": "1993-036BYE",
        "meta_epoch": "2025-12-24T01:39:06.472224",
        "meta_mean_motion": 14.35696552,
        "meta_eccentricity": 0.01448361,
        "meta_inclination": 74.0936,
        "meta_ra_of_asc_node": 287.9879,
        "meta_arg_of_pericenter": 313.5556,
        "meta_mean_anomaly": 59.972,
        "meta_ephemeris_type": 0,
        "meta_classification_type": "U",
        "meta_norad_cat_id": 47074,
        "meta_element_set_no": 999,
        "meta_rev_at_epoch": 2845,
        "meta_bstar": 0.0011703787,
        "meta_mean_motion_dot": 3.781e-05,
        "meta_mean_motion_ddot": 0,
        "tle_line1": "1 47074U 93036BYE 25358.06882491  .00003781  00000+0  11704-2 0  9997",
        "tle_line2": "2 47074  74.0936 287.9879 0144836 313.5556  59.9720 14.35696552 28454"
      },
      "geometry": {
        "type": "Point",
        "coordinates": [
          79.386266321833,
          52.79743714703839
        ]
      }
    },
    {
      "type": "Feature",
      "properties": {
        "norad_id": 47116,
        "name": "COSMOS 2251 DEB",
        "group": "cosmos-2251-debris",
        "lat": 70.73050986804307,
        "lon": -24.569346347515186,
        "alt_km": 576.9512449457707,
        "timestamp": "2025-12-27T15:27:11.593126+00:00",
        "meta_object_name": "COSMOS 2251 DEB",
        "meta_object_id": "1993-036BYJ",
        "meta_epoch": "2025-12-22T09:13:54.172992",
        "meta_mean_motion": 14.98590739,
        "meta_eccentricity": 0.00212329,
        "meta_inclination": 74.0216,
        "meta_ra_of_asc_node": 221.1484,
        "meta_arg_of_pericenter": 314.2258,
        "meta_mean_anomaly": 222.9412,
        "meta_ephemeris_type": 0,
        "meta_classification_type": "U",
        "meta_norad_cat_id": 47116,
        "meta_element_set_no": 999,
        "meta_rev_at_epoch": 59655,
        "meta_bstar": 0.0021038728,
        "meta_mean_motion_dot": 0.000254,
        "meta_mean_motion_ddot": 0,
        "tle_line1": "1 47116U 93036BYJ 25356.38465478  .00025400  00000+0  21039-2 0  9993",
        "tle_line2": "2 47116  74.0216 221.1484 0021232 314.2258 222.9412 14.98590739596555"
      },
      "geometry": {
        "type": "Point",
        "coordinates": [
          -24.569346347515186,
          70.73050986804307
        ]
      }
    }
  ]
}